GLOBALSTAR M080         
1 38041U 11080B   26087.89046135 -.00000082  00000+0  12262-3 0  9991
2 38041  52.0049 263.4262 0001231  96.1480  67.5707 12.62267863658743
